[{"OBJECT_NAME":"STARLINK-3248","OBJECT_ID":"2021-115AA","EPOCH":"2026-03-09T22:38:56.829984","MEAN_MOTION":15.08844075,"ECCENTRICITY":0.00013458,"INCLINATION":53.2178,"RA_OF_ASC_NODE":147.5581,"ARG_OF_PERICENTER":84.2223,"MEAN_ANOMALY":275.8922,"EPHEMERIS_TYPE":0,"CLASSIFICATION_TYPE":"U","NORAD_CAT_ID":49748,"ELEMENT_SET_NO":999,"REV_AT_EPOCH":23558,"BSTAR":-2.0171236e-5,"MEAN_MOTION_DOT":-6.09e-6,"MEAN_MOTION_DDOT":0},{"OBJECT_NAME":"OBJECT H","OBJECT_ID":"2025-292H","EPOCH":"2026-03-09T22:24:53.558208","MEAN_MOTION":15.06373042,"ECCENTRICITY":0.00142604,"INCLINATION":97.6442,"RA_OF_ASC_NODE":145.7846,"ARG_OF_PERICENTER":348.9217,"MEAN_ANOMALY":11.1694,"EPHEMERIS_TYPE":0,"CLASSIFICATION_TYPE":"U","NORAD_CAT_ID":67000,"ELEMENT_SET_NO":999,"REV_AT_EPOCH":1338,"BSTAR":0.0005462937,"MEAN_MOTION_DOT":8.001e-5,"MEAN_MOTION_DDOT":0}]
